{
    "links": {
        "self": "http://www.neowsapp.com/rest/v1/neo/3672671?api_key=iIulBulltgU6a56xZRHN4H3l9WmuAYTsLGpBGhQ2"
    },
    "id": "3672671",
    "neo_reference_id": "3672671",
    "name": "(2014 KD46)",
    "designation": "2014 KD46",
    "nasa_jpl_url": "http://ssd.jpl.nasa.gov/sbdb.cgi?sstr=3672671",
    "absolute_magnitude_h": 23.8,
    "estimated_diameter": {
        "kilometers": {
            "estimated_diameter_min": 0.046190746,
            "estimated_diameter_max": 0.1032856481
        },
        "meters": {
            "estimated_diameter_min": 46.1907460282,
            "estimated_diameter_max": 103.2856480504
        },
        "miles": {
            "estimated_diameter_min": 0.0287015901,
            "estimated_diameter_max": 0.0641787064
        },
        "feet": {
            "estimated_diameter_min": 151.544447199,
            "estimated_diameter_max": 338.8636855496
        }
    },
    "is_potentially_hazardous_asteroid": false,
    "close_approach_data": [
        {
            "close_approach_date": "2014-05-17",
            "close_approach_date_full": "2014-May-17 15:20",
            "epoch_date_close_approach": 1400340000000,
            "relative_velocity": {
                "kilometers_per_second": "12.4416681522",
                "kilometers_per_hour": "44790.0053478289",
                "miles_per_hour": "27830.7674895996"
            },
            "miss_distance": {
                "astronomical": "0.0748712509",
                "lunar": "29.1249166001",
                "kilometers": "11200579.658875583",
                "miles": "6959717.4736377254"
            },
            "orbiting_body": "Earth"
        }
    ],
    "orbital_data": {
        "orbit_id": "5",
        "orbit_determination_date": "2017-04-06 08:40:19",
        "first_observation_date": "2014-05-26",
        "last_observation_date": "2014-05-31",
        "data_arc_in_days": 5,
        "observations_used": 22,
        "orbit_uncertainty": "8",
        "minimum_orbit_intersection": ".0634391",
        "jupiter_tisserand_invariant": "3.255",
        "epoch_osculation": "2456804.5",
        "eccentricity": ".5727369255383264",
        "semi_major_axis": "2.386208365889145",
        "inclination": "14.6630849065134",
        "ascending_node_longitude": "240.2403239963857",
        "orbital_period": "1346.359294585922",
        "perihelion_distance": "1.019538722715962",
        "perihelion_argument": "324.7903332958724",
        "aphelion_distance": "3.752878009062327",
        "perihelion_time": "2456770.160806522842",
        "mean_anomaly": "9.181880127755123",
        "mean_motion": ".2673877630196176",
        "equinox": "J2000",
        "orbit_class": {
            "orbit_class_type": "AMO",
            "orbit_class_description": "Near-Earth asteroid orbits similar to that of 1221 Amor",
            "orbit_class_range": "1.017 AU < q (perihelion) < 1.3 AU"
        }
    },
    "is_sentry_object": false
}